[{"OBJECT_NAME":"ONEWEB-0276","OBJECT_ID":"2021-060AD","EPOCH":"2026-03-09T22:25:54.137568","MEAN_MOTION":13.16593566,"ECCENTRICITY":0.00018143,"INCLINATION":87.9003,"RA_OF_ASC_NODE":248.5167,"ARG_OF_PERICENTER":94.1873,"MEAN_ANOMALY":265.9465,"EPHEMERIS_TYPE":0,"CLASSIFICATION_TYPE":"U","NORAD_CAT_ID":48994,"ELEMENT_SET_NO":999,"REV_AT_EPOCH":22651,"BSTAR":0.00020599833,"MEAN_MOTION_DOT":9.2e-7,"MEAN_MOTION_DDOT":0},{"OBJECT_NAME":"OPS 4682 DEB","OBJECT_ID":"1965-027D","EPOCH":"2026-03-09T22:50:18.506976","MEAN_MOTION":13.14636756,"ECCENTRICITY":0.00216128,"INCLINATION":89.8629,"RA_OF_ASC_NODE":220.946,"ARG_OF_PERICENTER":59.3785,"MEAN_ANOMALY":61.536,"EPHEMERIS_TYPE":0,"CLASSIFICATION_TYPE":"U","NORAD_CAT_ID":1389,"ELEMENT_SET_NO":999,"REV_AT_EPOCH":89764,"BSTAR":0.0020373573,"MEAN_MOTION_DOT":7.67e-6,"MEAN_MOTION_DDOT":0}]
